OBJECT_NAME,OBJECT_ID,EPOCH,MEAN_MOTION,ECCENTRICITY,INCLINATION,RA_OF_ASC_NODE,ARG_OF_PERICENTER,MEAN_ANOMALY,EPHEMERIS_TYPE,CLASSIFICATION_TYPE,NORAD_CAT_ID,ELEMENT_SET_NO,REV_AT_EPOCH,BSTAR,MEAN_MOTION_DOT,MEAN_MOTION_DDOT
D-STAR ONE (SPARROW),2018-111F,2026-06-16T08:50:25.551456,15.74223986,.00043151,97.6128,108.1308,112.3486,247.8235,0,U,43881,999,41124,.98615058E-3,.143434E-2,0
JILIN-1 09,2019-005B,2026-06-16T14:06:20.593440,15.20510657,.00037829,97.4744,262.5551,96.0502,264.1164,0,U,43943,999,40905,.17351995E-3,.3724E-4,0
JILIN-1 10,2019-005E,2026-06-16T14:26:44.703456,15.25717359,.00065788,97.4790,266.4058,281.5368,78.5131,0,U,43946,999,40922,.1903153E-3,.478E-4,0
EGYPTSAT-A (MISRSAT-A),2019-008A,2026-06-16T14:23:21.055200,14.72307614,.00012986,98.0188,232.3679,93.2534,266.8822,0,U,44047,999,39315,.16446466E-3,.99E-5,0
EMISAT,2019-018A,2026-06-16T14:09:25.135200,14.43687681,.00176585,98.4648,226.3937,216.5555,143.4431,0,U,44078,999,37997,.1333507E-3,.409E-5,0
JILIN-1 GAOFEN 3A,2019-032C,2026-06-16T13:31:45.983424,15.32617491,.00064562,44.9754,0.3675,292.9147,67.1056,0,U,44312,999,38774,.29405709E-3,.9147E-4,0
WT 1B,2019-032G,2026-06-16T14:39:33.497568,15.27174002,.00099279,44.9726,64.0847,245.8537,114.1308,0,U,44316,999,38699,.30239475E-3,.7929E-4,0
PROX-1,2019-036A,2026-06-16T04:29:18.353472,14.90587417,.00056807,23.9937,120.9336,25.8982,334.1802,0,U,44339,999,37332,.10169228E-2,.10486E-3,0
NPSAT1,2019-036B,2026-06-16T10:34:35.469984,14.74574053,.0007282,23.9960,222.6262,197.4391,162.5855,0,U,44340,999,37238,.53974281E-3,.3924E-4,0
FORMOSAT 7-3,2019-036E,2026-06-16T10:57:48.996576,15.09795440,.00003072,23.9974,183.5683,259.2585,100.7884,0,U,44343,999,38313,.16839466E-3,.3138E-4,0
FORMOSAT 7-1,2019-036L,2026-06-16T07:31:24.474144,14.96502381,.00008437,23.9980,38.2834,147.8049,212.2504,0,U,44349,999,38452,.17757215E-3,.2369E-4,0
FORMOSAT 7-4,2019-036M,2026-06-16T03:15:42.801120,14.96494412,.00011926,23.9977,101.5852,163.9496,196.1043,0,U,44350,999,38391,.16919047E-3,.2272E-4,0
FORMOSAT 7-2,2019-036N,2026-06-16T06:59:55.153248,14.96495643,.0000791,23.9963,154.8526,149.0036,211.0511,0,U,44351,999,38345,.15254E-3,.2078E-4,0
FORMOSAT 7-6,2019-036Q,2026-06-16T03:47:33.713376,14.96508065,.0001426,23.9990,336.5697,83.8974,276.1689,0,U,44353,999,38166,.18096175E-3,.2409E-4,0
FORMOSAT 7-5,2019-036V,2026-06-16T14:26:55.103424,14.96516314,.00005931,23.9976,272.3289,117.3250,242.7311,0,U,44358,999,38226,.16208923E-3,.219E-4,0
METEOR-M2 2,2019-038A,2026-06-16T14:41:56.333184,14.24364866,.0002111,98.9137,154.8893,48.4790,311.6569,0,U,44387,999,36121,-.69880108E-4,-.207E-5,0
COSMOS 2535,2019-039A,2026-06-16T14:32:23.686080,14.91941069,.0007515,97.5767,195.7919,204.2637,155.8229,0,U,44421,999,37655,.85080988E-4,.808E-5,0
GLOBAL-4,2019-054E,2026-06-16T12:04:24.218112,15.64356641,.00060866,45.0049,240.3485,331.7510,28.3057,0,U,44499,999,38025,.40497701E-3,.3956E-3,0
ZY-1 02D,2019-059A,2026-06-16T05:35:20.300640,14.35458803,.0002435,98.3193,228.7512,108.2928,251.8523,0,U,44528,999,35420,-.13307E-4,-.8E-6,0
TAURUS-1 (JINNIUZUO 1),2019-059C,2026-06-16T13:30:48.223296,14.72093032,.00074292,98.6410,332.3516,318.6866,41.3777,0,U,44530,999,35855,.90608431E-3,.5649E-4,0
ZHUHAI-1 03B,2019-060C,2026-06-16T14:29:31.393248,15.54059021,.00075178,97.5527,325.3370,320.2979,39.7723,0,U,44536,999,37623,.38791782E-3,.25098E-3,0
ZHUHAI-1 03D,2019-060E,2026-06-16T15:25:22.454400,15.49721295,.00066465,97.5395,317.5040,302.7300,57.3309,0,U,44538,999,37599,.47089595E-3,.26105E-3,0
ZHUHAI-1 03E,2019-060F,2026-06-16T15:49:10.058880,15.41049481,.00059712,97.5613,317.5875,35.1601,325.0038,0,U,44539,999,37568,.3291647E-3,.13521E-3,0
ATLAS 5 CENTAUR DEB,2018-079BG,2026-06-16T03:19:22.068768,1.77425303,.47219717,13.6221,39.3665,299.0504,21.8108,0,U,44694,999,4654,0,-.104E-5,0
GAOFEN-7,2019-072A,2026-06-16T14:34:02.708256,15.21260735,.00188721,97.2428,229.0964,43.3940,316.8778,0,U,44703,999,36755,.19651864E-3,.4344E-4,0
JILIN-1 GAOFEN 2A,2019-075A,2026-06-16T13:12:04.956768,15.39293699,.00074833,97.4970,251.3248,89.2742,270.9361,0,U,44777,999,36478,.29944962E-3,.11603E-3,0
NINGXIA-1 1,2019-076A,2026-06-16T12:57:58.171104,14.02038135,.00105823,45.0036,182.7431,160.3237,199.8007,0,U,44779,999,33776,.30501024E-4,-.83E-6,0
NINGXIA-1 5,2019-076E,2026-06-16T14:59:44.949120,14.02087103,.00100519,45.0033,181.7067,150.1964,209.9444,0,U,44783,999,33769,.13560281E-3,.79E-6,0
KL-ALPHA A,2019-077A,2026-06-16T14:29:20.412672,13.56043023,.00132511,88.9254,222.6284,107.3841,252.8763,0,U,44785,999,32565,.91348198E-4,.76E-6,0
CARTOSAT-3,2019-081A,2026-06-16T13:32:58.677792,15.19281750,.00131999,97.4309,229.4417,150.3638,209.8347,0,U,44804,999,36337,.22412136E-3,.467E-4,0
JILIN-1 GAOFEN 2B,2019-086A,2026-06-16T13:19:11.971488,15.20705368,.0012902,97.4884,239.5496,326.7709,33.2714,0,U,44836,999,36039,.22926596E-3,.498E-4,0
TIANQIN 1 (CAS-6),2019-093A,2026-06-16T13:17:41.148672,14.95432610,.00122054,97.7811,251.3986,59.0653,301.1766,0,U,44879,999,35195,.22034331E-3,.2381E-4,0
ETRSS-1,2019-093B,2026-06-16T13:27:46.252800,14.95864177,.00122469,97.7827,251.8637,59.6133,300.6296,0,U,44880,999,35196,.27233148E-3,.299E-4,0
TIANYAN 01,2019-093C,2026-06-16T15:22:51.625056,14.86521422,.00151433,97.7539,239.8862,88.4740,271.8211,0,U,44881,999,35133,.1343981E-3,.1138E-4,0
TIANYAN 02,2019-093D,2026-06-16T14:06:16.751232,15.05223427,.00142245,97.7945,262.3717,32.1573,328.0518,0,U,44882,999,35252,.36692465E-3,.5186E-4,0
CBERS 4A,2019-093E,2026-06-16T11:33:45.635616,14.81553935,.00008419,98.0198,234.9210,351.6498,8.4700,0,U,44883,999,35097,.37585067E-4,.241E-5,0
WEILAI 1R,2019-093F,2026-06-16T14:06:28.967328,15.00642398,.00179582,97.7864,257.4725,38.2483,322.0011,0,U,44884,999,35233,.35129698E-3,.4396E-4,0
FLORIPASAT-1,2019-093G,2026-06-16T13:26:32.340192,15.03866565,.00127625,97.7914,261.7865,73.7449,286.5179,0,U,44885,999,35255,.33933594E-3,.4617E-4,0
SHUNTIAN,2019-093H,2026-06-16T14:32:17.436768,14.95163443,.00133553,97.8022,255.7693,70.1271,290.1388,0,U,44886,999,35209,.32225299E-3,.3486E-4,0
2019-093L,2019-093L,2026-06-16T14:01:56.910144,14.94538350,.00132573,97.7569,245.8526,57.7203,302.5300,0,U,44889,999,35171,.28208094E-3,.2996E-4,0
ELEKTRO-L 3,2019-095A,2026-06-16T15:05:11.173056,1.00271377,.00009373,0.2555,81.4895,351.7931,133.8636,0,U,44903,999,2370,0,-.98E-6,0
GONETS-M 14,2019-096A,2026-06-16T13:33:53.205696,12.42869670,.0013487,82.5242,85.0266,149.2311,210.9562,0,U,44905,999,29360,-.7592097E-5,.9E-7,0
GONETS-M 15,2019-096B,2026-06-16T14:16:13.422720,12.42871200,.00148635,82.5263,85.4698,172.6868,187.4431,0,U,44906,999,29357,-.17615951E-3,-.14E-6,0
GONETS-M 16,2019-096C,2026-06-16T14:53:59.299008,12.42891194,.0009791,82.5208,84.4062,215.9637,144.0785,0,U,44907,999,29356,-.54189659E-3,-.65E-6,0
RS-44 & BREEZE-KM R/B,2019-096E,2026-06-16T12:51:59.500512,12.79748877,.02181355,82.5219,340.1377,145.6827,215.8590,0,U,44909,999,30226,.2628816E-5,.13E-6,0
JILIN-1 KUANFU 01,2020-003A,2026-06-16T13:22:00.660576,15.10721143,.00083942,97.5030,241.5245,310.1176,49.9318,0,U,45016,999,35523,.17777676E-3,.2884E-4,0
XINGYUN-2 01,2020-028A,2026-06-16T14:42:01.547424,15.11802585,.00082017,97.4859,160.0238,194.9063,165.1927,0,U,45602,999,33475,.67965841E-4,.1097E-4,0
XINGYUN-2 02,2020-028B,2026-06-16T14:11:05.024832,15.11535646,.00090569,97.5064,173.5923,276.0943,83.9255,0,U,45603,999,33474,.84965673E-4,.1377E-4,0
HAIYANG-1D,2020-036A,2026-06-16T14:58:57.040320,14.34172225,.00033747,98.4560,109.3164,129.3254,230.8231,0,U,45721,999,31489,-.34870457E-4,-.141E-5,0
M2 PATHFINDER,2020-037E,2026-06-16T13:57:09.351936,15.04674460,.00124695,97.8147,358.8065,147.8892,212.3096,0,U,45727,999,32540,.1113712E-3,.1505E-4,0
GAOFEN DUOMO (GFDM),2020-042A,2026-06-16T14:20:38.573088,14.76880984,.00124806,97.7750,227.5051,76.4049,283.8550,0,U,45856,999,32092,.15410353E-3,.1035E-4,0
ZIYUAN 3-03 (ZY 3-03),2020-051A,2026-06-16T14:12:44.676864,15.21261446,.00030775,97.2837,235.3384,345.6134,14.5014,0,U,45939,999,32725,.4033341E-3,.895E-4,0
NEMO-HD,2020-061F,2026-06-16T14:40:32.302272,15.44584225,.00022958,97.1919,229.5701,81.8478,278.3031,0,U,46277,999,32189,.19909789E-3,.917E-4,0
3CAT-5A,2020-061W,2026-06-16T01:49:23.538432,15.46069945,.00031547,97.2407,229.9693,117.6427,242.5144,0,U,46292,999,32085,.28562029E-3,.13886E-3,0
3CAT-5B,2020-061X,2026-06-15T17:41:25.509984,15.47436986,.00034347,97.2399,230.6106,117.7338,242.4261,0,U,46293,999,32083,.29845316E-3,.15218E-3,0
NAPA-1,2020-061BA,2026-06-16T14:07:10.494624,15.67914422,.00013976,97.2464,241.7482,171.8014,188.3270,0,U,46320,999,32164,.53092117E-3,.58687E-3,0
JILIN-1 GAOFEN 3E,2020-065D,2026-06-16T13:58:05.085984,15.63566753,.00127752,97.2244,220.1771,159.1687,201.0095,0,U,46457,999,31966,.55934754E-3,.52168E-3,0
JILIN-1 GAOFEN 3F,2020-065E,2026-06-16T14:32:31.131168,15.60851836,.001435,97.2198,217.5397,147.9618,212.2515,0,U,46458,999,31961,.53392944E-3,.44826E-3,0
JILIN-1 GAOFEN 3G,2020-065F,2026-06-16T13:47:27.122208,15.71122747,.00084046,97.2268,224.3016,66.3954,293.8191,0,U,46459,999,31984,.65344758E-3,.82841E-3,0
JILIN-1 GAOFEN 3H,2020-065G,2026-06-16T14:36:32.003136,15.67705104,.00036035,97.2207,220.6685,354.1587,5.9632,0,U,46460,999,31979,.59021887E-3,.64767E-3,0
HAIYANG-2C,2020-066A,2026-06-16T14:05:53.659968,13.83375425,.00089558,65.9963,216.7775,237.9726,122.0473,0,U,46469,999,28941,.38506681E-4,-.39E-6,0
HJ-2A,2020-067A,2026-06-16T13:19:36.746688,14.76515025,.00023336,97.8834,245.9426,271.6542,88.4400,0,U,46478,999,30816,.57577518E-4,.351E-5,0
HJ-2B,2020-067B,2026-06-16T14:12:45.101088,14.76559834,.00012755,97.8898,246.9997,98.3877,261.7478,0,U,46479,999,30817,.17603491E-3,.1178E-4,0
GONETS-M 17,2020-068A,2026-06-16T13:34:14.123136,12.42873277,.00231315,82.4982,347.8895,38.7849,321.4886,0,U,46486,999,25908,.16642159E-3,.33E-6,0
GONETS-M 18,2020-068B,2026-06-16T14:37:49.053792,12.42873623,.00203668,82.4937,346.9800,35.4320,324.8109,0,U,46487,999,25907,.25143172E-3,.45E-6,0
